{"spkid": "20207945", "covariance": {"elements": [{"label": "e", "name": "e", "sigma": 3.97250704403546e-08, "title": "eccentricity", "value": ".1186045875604279", "units": null}, {"label": "q", "name": "q", "sigma": 4.12990791199861e-08, "title": "perihelion distance", "value": ".9153319752486526", "units": "au"}, {"label": "tp", "name": "tp", "sigma": 2.97453720431569e-05, "units": "TDB", "title": "time of perihelion passage", "value": "2455085.530766280069"}, {"label": "node", "units": "deg", "value": "53.999924481718", "title": "longitude of the ascending node", "name": "om", "sigma": 1.55610635245722e-05}, {"sigma": 3.1608068130919e-05, "name": "w", "value": "301.7100734186182", "title": "argument of perihelion", "units": "deg", "label": "peri"}, {"name": "i", "sigma": 7.05964001547445e-06, "units": "deg", "title": "inclination", "value": "8.716031686517542", "label": "i"}], "data": [["1.578081221491134E-15", "-1.637597054857038E-15", "5.004587810047548E-14", "7.592429720134993E-14", "7.517574513900359E-14", "9.692471058818431E-15"], ["-1.637597054857038E-15", "1.705613936158872E-15", "-7.484703490117579E-14", "-7.531900214190326E-14", "-1.012436071998988E-13", "-1.203998042947711E-14"], ["5.004587810047548E-14", "-7.484703490117579E-14", "8.847871579858183E-10", "-1.084047948302627E-10", "8.333358739629914E-10", "5.970548496970861E-11"], ["7.592429720134993E-14", "-7.531900214190326E-14", "-1.084047948302627E-10", "2.421466980157714E-10", "-3.169913361654706E-10", "-1.030937275261579E-11"], ["7.517574513900359E-14", "-1.012436071998988E-13", "8.333358739629914E-10", "-3.169913361654706E-10", "9.990699709688155E-10", "5.709176627905567E-11"], ["9.692471058818431E-15", "-1.203998042947711E-14", "5.970548496970861E-11", "-1.030937275261579E-11", "5.709176627905567E-11", "4.98385171480881E-11"]], "labels": ["e", "q", "tp", "node", "peri", "i"], "epoch": "2455009.5"}, "elements": [{"units": null, "value": ".118718900333123", "title": "eccentricity", "sigma": "4.0167E-8", "name": "e", "label": "e"}, {"label": "a", "sigma": "2.8481E-9", "name": "a", "units": "au", "title": "semi-major axis", "value": "1.039060893104871"}, {"sigma": "4.1048E-8", "name": "q", "units": "au", "title": "perihelion distance", "value": ".9157047264963082", "label": "q"}, {"label": "i", "sigma": "7.0651E-6", "name": "i", "title": "inclination; angle with respect to x-y ecliptic plane", "value": "8.709306602288628", "units": "deg"}, {"title": "longitude of the ascending node", "value": "53.84728081532103", "units": "deg", "name": "om", "sigma": "1.5546E-5", "label": "node"}, {"sigma": "3.118E-5", "name": "w", "title": "argument of perihelion", "value": "301.9697283730752", "units": "deg", "label": "peri"}, {"label": "M", "units": "deg", "title": "mean anomaly", "value": "290.3744102486302", "sigma": "2.5533E-5", "name": "ma"}, {"units": "TDB", "value": "2461275.321483097063", "title": "time of perihelion passage", "sigma": "2.7563E-5", "name": "tp", "label": "tp"}, {"label": "period", "units": "d", "value": "386.8654328261936", "title": "sidereal orbital period", "sigma": "1.5906E-6", "name": "per"}, {"name": "n", "sigma": "3.826E-9", "value": ".9305561299960771", "title": "mean motion", "units": "deg/d", "label": "n"}, {"sigma": "3.1862E-9", "name": "ad", "title": "aphelion distance", "value": "1.162417059713434", "units": "au", "label": "Q"}], "epoch": "2461200.5"}